start=new Date('2022-10-15T00:00:00.000Z').valueOf();
sats=[{"CLASSIFICATION_TYPE":"U","OBJECT_ID":"2021-005BH","MEAN_ANOMALY":"231.8830","SEMIMAJOR_AXIS":"6925.282","ELEMENT_SET_NO":"999","MEAN_MOTION_DDOT":"0.0000000000000","PERIOD":"95.591","DECAY_DATE":null,"OBJECT_NAME":"STARLINK-2128","REV_AT_EPOCH":"9629","TLE_LINE2":"2 47404  53.0547 206.3613 0001414 128.2286 231.8830 15.06421614 96296","EPHEMERIS_TYPE":"0","EPOCH":"2022-10-14T20:56:53.007072","COUNTRY_CODE":"US","FILE":"3612869","ARG_OF_PERICENTER":"128.2286","INCLINATION":"53.0547","MEAN_MOTION_DOT":"0.00007721","NORAD_CAT_ID":"47404","MEAN_MOTION":"15.06421614","PERIAPSIS":"546.168","REF_FRAME":"TEME","MEAN_ELEMENT_THEORY":"SGP4","LAUNCH_DATE":"2021-01-20","TLE_LINE1":"1 47404U 21005BH  22287.87283573  .00007721  00000-0  53636-3 0  9994","TIME_SYSTEM":"UTC","RCS_SIZE":"LARGE","CENTER_NAME":"EARTH","BSTAR":"0.00053636000000","ECCENTRICITY":"0.00014140","OBJECT_TYPE":"PAYLOAD","SITE":"AFETR","GP_ID":"215143028","RA_OF_ASC_NODE":"206.3613","APOAPSIS":"548.127"},{"MEAN_ELEMENT_THEORY":"SGP4","LAUNCH_DATE":"2021-01-20","TLE_LINE1":"1 47405U 21005BJ  22287.85532424  .00002003  00000-0  15335-3 0  9997","PERIAPSIS":"546.463","REF_FRAME":"TEME","ECCENTRICITY":"0.00010910","OBJECT_TYPE":"PAYLOAD","SITE":"AFETR","GP_ID":"215141776","RA_OF_ASC_NODE":"236.4236","APOAPSIS":"547.974","TIME_SYSTEM":"UTC","RCS_SIZE":"LARGE","CENTER_NAME":"EARTH","BSTAR":"0.00015335000000","SEMIMAJOR_AXIS":"6925.354","MEAN_MOTION_DDOT":"0.0000000000000","ELEMENT_SET_NO":"999","PERIOD":"95.592","DECAY_DATE":null,"CLASSIFICATION_TYPE":"U","MEAN_ANOMALY":"284.5458","OBJECT_ID":"2021-005BJ","FILE":"3612869","INCLINATION":"53.0552","ARG_OF_PERICENTER":"75.5652","MEAN_MOTION_DOT":"0.00002003","NORAD_CAT_ID":"47405","MEAN_MOTION":"15.06398385","REV_AT_EPOCH":"9586","OBJECT_NAME":"STARLINK-2130","TLE_LINE2":"2 47405  53.0552 236.4236 0001091  75.5652 284.5458 15.06398385 95861","EPHEMERIS_TYPE":"0","EPOCH":"2022-10-14T20:31:40.014336","COUNTRY_CODE":"US"},{"MEAN_ANOMALY":"247.8141","OBJECT_ID":"2021-005BK","CLASSIFICATION_TYPE":"U","PERIOD":"95.592","DECAY_DATE":null,"SEMIMAJOR_AXIS":"6925.322","ELEMENT_SET_NO":"999","MEAN_MOTION_DDOT":"0.0000000000000","EPHEMERIS_TYPE":"0","EPOCH":"2022-10-14T11:39:34.520544","COUNTRY_CODE":"US","OBJECT_NAME":"STARLINK-2133","REV_AT_EPOCH":"9623","TLE_LINE2":"2 47406  53.0547 208.1010 0001423 112.2999 247.8141 15.06408592 96239","NORAD_CAT_ID":"47406","MEAN_MOTION":"15.06408592","FILE":"3611991","INCLINATION":"53.0547","ARG_OF_PERICENTER":"112.2999","MEAN_MOTION_DOT":"0.00002098","PERIAPSIS":"546.202","REF_FRAME":"TEME","MEAN_ELEMENT_THEORY":"SGP4","LAUNCH_DATE":"2021-01-20","TLE_LINE1":"1 47406U 21005BK  22287.48581621  .00002098  00000-0  15967-3 0  9995","BSTAR":"0.00015967000000","TIME_SYSTEM":"UTC","RCS_SIZE":"LARGE","CENTER_NAME":"EARTH","OBJECT_TYPE":"PAYLOAD","SITE":"AFETR","GP_ID":"215101586","RA_OF_ASC_NODE":"208.1010","APOAPSIS":"548.173","ECCENTRICITY":"0.00014230"},{"REF_FRAME":"TEME","PERIAPSIS":"546.392","TLE_LINE1":"1 47407U 21005BL  22287.82491602  .00000286  00000-0  38098-4 0  9991","LAUNCH_DATE":"2021-01-20","MEAN_ELEMENT_THEORY":"SGP4","CENTER_NAME":"EARTH","RCS_SIZE":"LARGE","TIME_SYSTEM":"UTC","BSTAR":"0.00003809800000","ECCENTRICITY":"0.00011810","APOAPSIS":"548.028","RA_OF_ASC_NODE":"206.5783","GP_ID":"215108997","SITE":"AFETR","OBJECT_TYPE":"PAYLOAD","CLASSIFICATION_TYPE":"U","OBJECT_ID":"2021-005BL","MEAN_ANOMALY":"253.9170","ELEMENT_SET_NO":"999","MEAN_MOTION_DDOT":"0.0000000000000","SEMIMAJOR_AXIS":"6925.345","DECAY_DATE":null,"PERIOD":"95.592","TLE_LINE2":"2 47407  53.0538 206.5783 0001181 106.1949 253.9170 15.06401247 96899","REV_AT_EPOCH":"9689","OBJECT_NAME":"STARLINK-2134","COUNTRY_CODE":"US","EPOCH":"2022-10-14T19:47:52.744128","EPHEMERIS_TYPE":"0","MEAN_MOTION_DOT":"0.00000286","ARG_OF_PERICENTER":"106.1949","INCLINATION":"53.0538","FILE":"3612190","MEAN_MOTION":"15.06401247","NORAD_CAT_ID":"47407"},{"OBJECT_TYPE":"PAYLOAD","SITE":"AFETR","GP_ID":"215100585","RA_OF_ASC_NODE":"209.9876","APOAPSIS":"548.056","ECCENTRICITY":"0.00012350","BSTAR":"0.00063901000000","TIME_SYSTEM":"UTC","RCS_SIZE":"LARGE","CENTER_NAME":"EARTH","MEAN_ELEMENT_THEORY":"SGP4","LAUNCH_DATE":"2021-01-20","TLE_LINE1":"1 47408U 21005BM  22287.06562613  .00009250  00000-0  63901-3 0  9999","PERIAPSIS":"546.345","REF_FRAME":"TEME","NORAD_CAT_ID":"47408","MEAN_MOTION":"15.06404205","FILE":"3611991","INCLINATION":"53.0539","ARG_OF_PERICENTER":"105.2707","MEAN_MOTION_DOT":"0.00009250","EPOCH":"2022-10-14T01:34:30.097632","EPHEMERIS_TYPE":"0","COUNTRY_CODE":"US","REV_AT_EPOCH":"9617","OBJECT_NAME":"STARLINK-2135","TLE_LINE2":"2 47408  53.0539 209.9876 0001235 105.2707 254.8419 15.06404205 96177","PERIOD":"95.592","DECAY_DATE":null,"SEMIMAJOR_AXIS":"6925.336","ELEMENT_SET_NO":"999","MEAN_MOTION_DDOT":"0.0000000000000","OBJECT_ID":"2021-005BM","MEAN_ANOMALY":"254.8419","CLASSIFICATION_TYPE":"U"},{"CLASSIFICATION_TYPE":"U","OBJECT_ID":"2021-009A","MEAN_ANOMALY":"269.1669","MEAN_MOTION_DDOT":"0.0000000000000","ELEMENT_SET_NO":"999","SEMIMAJOR_AXIS":"6925.349","DECAY_DATE":null,"PERIOD":"95.592","TLE_LINE2":"2 47548  53.0562 186.3873 0001480  90.9489 269.1669 15.06399757 93765","OBJECT_NAME":"STARLINK-1782","REV_AT_EPOCH":"9376","COUNTRY_CODE":"US","EPHEMERIS_TYPE":"0","EPOCH":"2022-10-14T20:48:55.882080","MEAN_MOTION_DOT":"0.00001111","INCLINATION":"53.0562","ARG_OF_PERICENTER":"90.9489","FILE":"3612869","MEAN_MOTION":"15.06399757","NORAD_CAT_ID":"47548","REF_FRAME":"TEME","PERIAPSIS":"546.189","TLE_LINE1":"1 47548U 21009A   22287.86731345  .00001111  00000-0  93498-4 0  9999","LAUNCH_DATE":"2021-02-04","MEAN_ELEMENT_THEORY":"SGP4","CENTER_NAME":"EARTH","RCS_SIZE":"LARGE","TIME_SYSTEM":"UTC","BSTAR":"0.00009349800000","ECCENTRICITY":"0.00014800","APOAPSIS":"548.239","GP_ID":"215143044","RA_OF_ASC_NODE":"186.3873","SITE":"AFETR","OBJECT_TYPE":"PAYLOAD"},{"EPHEMERIS_TYPE":"0","EPOCH":"2022-10-14T20:43:36.200352","COUNTRY_CODE":"US","TLE_LINE2":"2 47549  53.0540 186.3960 0001473 101.7074 258.4080 15.06412989 93763","REV_AT_EPOCH":"9376","OBJECT_NAME":"STARLINK-1806","MEAN_MOTION":"15.06412989","NORAD_CAT_ID":"47549","MEAN_MOTION_DOT":"0.00006290","FILE":"3612869","INCLINATION":"53.0540","ARG_OF_PERICENTER":"101.7074","MEAN_ANOMALY":"258.4080","OBJECT_ID":"2021-009B","CLASSIFICATION_TYPE":"U","PERIOD":"95.591","DECAY_DATE":null,"MEAN_MOTION_DDOT":"0.0000000000000","ELEMENT_SET_NO":"999","SEMIMAJOR_AXIS":"6925.309","BSTAR":"0.00044061000000","CENTER_NAME":"EARTH","TIME_SYSTEM":"UTC","RCS_SIZE":"LARGE","RA_OF_ASC_NODE":"186.3960","GP_ID":"215141792","APOAPSIS":"548.194","OBJECT_TYPE":"PAYLOAD","SITE":"AFETR","ECCENTRICITY":"0.00014730","REF_FRAME":"TEME","PERIAPSIS":"546.154","LAUNCH_DATE":"2021-02-04","TLE_LINE1":"1 47549U 21009B   22287.86361343  .00006290  00000-0  44061-3 0  9991","MEAN_ELEMENT_THEORY":"SGP4"},{"BSTAR":"0.00005769900000","CENTER_NAME":"EARTH","RCS_SIZE":"LARGE","TIME_SYSTEM":"UTC","APOAPSIS":"548.067","GP_ID":"215142543","RA_OF_ASC_NODE":"176.3282","SITE":"AFETR","OBJECT_TYPE":"PAYLOAD","ECCENTRICITY":"0.00012120","REF_FRAME":"TEME","PERIAPSIS":"546.389","TLE_LINE1":"1 47550U 21009C   22287.87560777  .00000578  00000-0  57699-4 0  9991","LAUNCH_DATE":"2021-02-04","MEAN_ELEMENT_THEORY":"SGP4","COUNTRY_CODE":"US","EPHEMERIS_TYPE":"0","EPOCH":"2022-10-14T21:00:52.511328","TLE_LINE2":"2 47550  53.0545 176.3282 0001212  94.8510 265.2618 15.06395282 93909","OBJECT_NAME":"STARLINK-1909","REV_AT_EPOCH":"9390","MEAN_MOTION":"15.06395282","NORAD_CAT_ID":"47550","MEAN_MOTION_DOT":"0.00000578","INCLINATION":"53.0545","ARG_OF_PERICENTER":"94.8510","FILE":"3612869","OBJECT_ID":"2021-009C","MEAN_ANOMALY":"265.2618","CLASSIFICATION_TYPE":"U","DECAY_DATE":null,"PERIOD":"95.592","MEAN_MOTION_DDOT":"0.0000000000000","ELEMENT_SET_NO":"999","SEMIMAJOR_AXIS":"6925.363"},{"ECCENTRICITY":"0.00013640","SITE":"AFETR","OBJECT_TYPE":"PAYLOAD","APOAPSIS":"548.107","RA_OF_ASC_NODE":"196.3781","GP_ID":"215142794","RCS_SIZE":"LARGE","TIME_SYSTEM":"UTC","CENTER_NAME":"EARTH","BSTAR":"0.00054523000000","MEAN_ELEMENT_THEORY":"SGP4","TLE_LINE1":"1 47551U 21009D   22287.87007025  .00007853  00000-0  54523-3 0  9999","LAUNCH_DATE":"2021-02-04","PERIAPSIS":"546.218","REF_FRAME":"TEME","ARG_OF_PERICENTER":"94.8886","INCLINATION":"53.0528","FILE":"3612869","MEAN_MOTION_DOT":"0.00007853","NORAD_CAT_ID":"47551","MEAN_MOTION":"15.06416674","REV_AT_EPOCH":"9362","OBJECT_NAME":"STARLINK-1938","TLE_LINE2":"2 47551  53.0528 196.3781 0001364  94.8886 265.2259 15.06416674 93620","COUNTRY_CODE":"US","EPOCH":"2022-10-14T20:52:54.069600","EPHEMERIS_TYPE":"0","SEMIMAJOR_AXIS":"6925.297","MEAN_MOTION_DDOT":"0.0000000000000","ELEMENT_SET_NO":"999","DECAY_DATE":null,"PERIOD":"95.591","CLASSIFICATION_TYPE":"U","MEAN_ANOMALY":"265.2259","OBJECT_ID":"2021-009D"},{"NORAD_CAT_ID":"47552","MEAN_MOTION":"15.06400411","ARG_OF_PERICENTER":"115.0221","INCLINATION":"53.0540","FILE":"3612869","MEAN_MOTION_DOT":"0.00001050","COUNTRY_CODE":"US","EPOCH":"2022-10-14T20:59:32.608608","EPHEMERIS_TYPE":"0","REV_AT_EPOCH":"9376","OBJECT_NAME":"STARLINK-1940","TLE_LINE2":"2 47552  53.0540 186.3538 0001479 115.0221 245.0922 15.06400411 93760","DECAY_DATE":null,"PERIOD":"95.592","SEMIMAJOR_AXIS":"6925.347","ELEMENT_SET_NO":"999","MEAN_MOTION_DDOT":"0.0000000000000","OBJECT_ID":"2021-009E","MEAN_ANOMALY":"245.0922","CLASSIFICATION_TYPE":"U","SITE":"AFETR","OBJECT_TYPE":"PAYLOAD","APOAPSIS":"548.237","RA_OF_ASC_NODE":"186.3538","GP_ID":"215143545","ECCENTRICITY":"0.00014790","BSTAR":"0.00008936000000","RCS_SIZE":"LARGE","TIME_SYSTEM":"UTC","CENTER_NAME":"EARTH","MEAN_ELEMENT_THEORY":"SGP4","TLE_LINE1":"1 47552U 21009E   22287.87468297  .00001050  00000-0  89360-4 0  9993","LAUNCH_DATE":"2021-02-04","PERIAPSIS":"546.188","REF_FRAME":"TEME"}];
